{
    "links": {
        "self": "http://www.neowsapp.com/rest/v1/neo/54053845?api_key=iIulBulltgU6a56xZRHN4H3l9WmuAYTsLGpBGhQ2"
    },
    "id": "54053845",
    "neo_reference_id": "54053845",
    "name": "(2020 RQ2)",
    "designation": "2020 RQ2",
    "nasa_jpl_url": "http://ssd.jpl.nasa.gov/sbdb.cgi?sstr=54053845",
    "absolute_magnitude_h": 25.36,
    "estimated_diameter": {
        "kilometers": {
            "estimated_diameter_min": 0.0225193047,
            "estimated_diameter_max": 0.050354696
        },
        "meters": {
            "estimated_diameter_min": 22.5193046679,
            "estimated_diameter_max": 50.3546960434
        },
        "miles": {
            "estimated_diameter_min": 0.0139928429,
            "estimated_diameter_max": 0.0312889478
        },
        "feet": {
            "estimated_diameter_min": 73.8822355265,
            "estimated_diameter_max": 165.2057009669
        }
    },
    "is_potentially_hazardous_asteroid": false,
    "close_approach_data": [
        {
            "close_approach_date": "2013-09-18",
            "close_approach_date_full": "2013-Sep-18 05:28",
            "epoch_date_close_approach": 1379482080000,
            "relative_velocity": {
                "kilometers_per_second": "13.3873452093",
                "kilometers_per_hour": "48194.4427533083",
                "miles_per_hour": "29946.1524985765"
            },
            "miss_distance": {
                "astronomical": "0.0776098836",
                "lunar": "30.1902447204",
                "kilometers": "11610273.277507932",
                "miles": "7214289.2836041816"
            },
            "orbiting_body": "Earth"
        },
        {
            "close_approach_date": "2020-09-17",
            "close_approach_date_full": "2020-Sep-17 10:55",
            "epoch_date_close_approach": 1600340100000,
            "relative_velocity": {
                "kilometers_per_second": "13.9680368164",
                "kilometers_per_hour": "50284.9325389842",
                "miles_per_hour": "31245.1015545705"
            },
            "miss_distance": {
                "astronomical": "0.0627307026",
                "lunar": "24.4022433114",
                "kilometers": "9384379.492563462",
                "miles": "5831183.0211292956"
            },
            "orbiting_body": "Earth"
        },
        {
            "close_approach_date": "2022-03-28",
            "close_approach_date_full": "2022-Mar-28 03:42",
            "epoch_date_close_approach": 1648438920000,
            "relative_velocity": {
                "kilometers_per_second": "20.0810674838",
                "kilometers_per_hour": "72291.8429418222",
                "miles_per_hour": "44919.3398546006"
            },
            "miss_distance": {
                "astronomical": "0.2630808287",
                "lunar": "102.3384423643",
                "kilometers": "39356331.611354869",
                "miles": "24454890.4749564322"
            },
            "orbiting_body": "Earth"
        },
        {
            "close_approach_date": "2027-09-17",
            "close_approach_date_full": "2027-Sep-17 15:49",
            "epoch_date_close_approach": 1821196140000,
            "relative_velocity": {
                "kilometers_per_second": "14.4878794634",
                "kilometers_per_hour": "52156.3660683934",
                "miles_per_hour": "32407.9375717748"
            },
            "miss_distance": {
                "astronomical": "0.0646740267",
                "lunar": "25.1581963863",
                "kilometers": "9675096.638643129",
                "miles": "6011826.2791640202"
            },
            "orbiting_body": "Earth"
        }
    ],
    "orbital_data": {
        "orbit_id": "5",
        "orbit_determination_date": "2020-09-16 07:59:42",
        "first_observation_date": "2020-09-10",
        "last_observation_date": "2020-09-16",
        "data_arc_in_days": 6,
        "observations_used": 25,
        "orbit_uncertainty": "8",
        "minimum_orbit_intersection": ".0461444",
        "jupiter_tisserand_invariant": "5.510",
        "epoch_osculation": "2459104.5",
        "eccentricity": ".3017701483440885",
        "semi_major_axis": "1.10765990038293",
        "inclination": "22.6434688079712",
        "ascending_node_longitude": "169.3740637531602",
        "orbital_period": "425.8023728715478",
        "perihelion_distance": ".7734012079295749",
        "perihelion_argument": "283.9898539737917",
        "aphelion_distance": "1.441918592836285",
        "perihelion_time": "2459185.582135389530",
        "mean_anomaly": "291.4480834303936",
        "mean_motion": ".8454626440247704",
        "equinox": "J2000",
        "orbit_class": {
            "orbit_class_type": "APO",
            "orbit_class_description": "Near-Earth asteroid orbits which cross the Earth’s orbit similar to that of 1862 Apollo",
            "orbit_class_range": "a (semi-major axis) > 1.0 AU; q (perihelion) < 1.017 AU"
        }
    },
    "is_sentry_object": false
}